NORAD_CAT_ID,OBJECT_NAME,OBJECT_TYPE,EPOCH,MEAN_MOTION,ECCENTRICITY,INCLINATION,RA_OF_ASC_NODE,ARG_OF_PERICENTER,MEAN_ANOMALY,BSTAR,MEAN_MOTION_DOT,MEAN_MOTION_DDOT,TLE_LINE0,TLE_LINE1,TLE_LINE2,SEMIMAJOR_AXIS,PERIOD,APOGEE,PERIGEE,DECAYED
51140.0,STARLINK-3175,PAYLOAD,2023-03-12 11:51:27,15.08831407,0.0001495,53.2153,166.668,123.0759,237.0377,0.00055695,8.585e-05,0.0,0 STARLINK-3175,1 51140U 22005AN  23071.49407148  .00008585  00000-0  55695-3 0  9999,2 51140  53.2153 166.6680 0001495 123.0759 237.0377 15.08831407 64816,6917.907,95.438,540.806,538.737,0.0
51140.0,STARLINK-3175,PAYLOAD,2023-03-13 05:20:42,15.08847297,0.0001305,53.2154,163.3973,117.0412,243.0713,0.00053151,8.183e-05,0.0,0 STARLINK-3175,1 51140U 22005AN  23072.22271041  .00008183  00000-0  53151-3 0  9991,2 51140  53.2154 163.3973 0001305 117.0412 243.0713 15.08847297 63819,6917.858,95.437,540.626,538.82,0.0
51140.0,STARLINK-3175,PAYLOAD,2023-03-14 05:11:29,15.08845737,0.0001315,53.2142,158.935,119.5476,240.5648,0.00024162,3.56e-05,0.0,0 STARLINK-3175,1 51140U 22005AN  23073.21630915  .00003560  00000-0  24162-3 0  9994,2 51140  53.2142 158.9350 0001315 119.5476 240.5648 15.08845737 65079,6917.863,95.437,540.638,538.818,0.0
51140.0,STARLINK-3175,PAYLOAD,2023-03-14 11:33:01,15.08850778,0.0001238,53.2142,157.7455,90.8974,269.216,0.00027856,4.149e-05,0.0,0 STARLINK-3175,1 51140U 22005AN  23073.48126905  .00004149  00000-0  27856-3 0  9999,2 51140  53.2142 157.7455 0001238  90.8974 269.2160 15.08850778 64000,6917.847,95.437,540.569,538.856,0.0
51140.0,STARLINK-3175,PAYLOAD,2023-03-14 14:43:47,15.08859681,0.0001135,53.214,157.1505,94.1448,265.9674,0.00042491,6.485e-05,0.0,0 STARLINK-3175,1 51140U 22005AN  23073.61374303  .00006485  00000-0  42491-3 0  9998,2 51140  53.2140 157.1505 0001135  94.1448 265.9674 15.08859681 65137,6917.82,95.436,540.47,538.9,0.0
51140.0,STARLINK-3175,PAYLOAD,2023-03-15 05:02:15,15.08855009,0.0001166,53.2134,154.4743,86.0848,274.0277,0.00027059,4.023e-05,0.0,0 STARLINK-3175,1 51140U 22005AN  23074.20990212  .00004023  00000-0  27059-3 0  9996,2 51140  53.2134 154.4743 0001166  86.0848 274.0277 15.08855009 65222,6917.835,95.437,540.506,538.893,0.0
51140.0,STARLINK-3175,PAYLOAD,2023-03-15 11:23:47,15.08870737,0.0001085,53.2126,153.286,59.2833,300.8265,0.00050092,7.7e-05,0.0,0 STARLINK-3175,1 51140U 22005AN  23074.47485426  .00007700  00000-0  50092-3 0  9999,2 51140  53.2126 153.2860 0001085  59.2833 300.8265 15.08870737 65260,6917.786,95.436,540.402,538.901,0.0
51140.0,STARLINK-3175,PAYLOAD,2023-03-15 12:59:10,15.08881162,0.0001421,53.2143,152.9875,79.8538,280.2615,0.000793,0.00012369,0.0,0 STARLINK-3175,1 51140U 22005AN  23074.54109013  .00012369  00000-0  79300-3 0  9992,2 51140  53.2143 152.9875 0001421  79.8538 280.2615 15.08881162 65270,6917.755,95.435,540.603,538.637,0.0
51140.0,STARLINK-3175,PAYLOAD,2023-03-16 04:53:02,15.08824797,0.0001049,53.2142,150.0131,113.9903,246.1199,-0.00078873,-0.00012813,0.0,0 STARLINK-3175,1 51140U 22005AN  23075.20349714 -.00012813  00000-0 -78873-3 0  9990,2 51140  53.2142 150.0131 0001049 113.9903 246.1199 15.08824797 65375,6917.927,95.439,540.518,539.066,0.0
51140.0,STARLINK-3175,PAYLOAD,2023-03-16 11:14:34,15.08826903,0.000118,53.214,148.8241,111.8727,248.239,-0.00036705,-6.123e-05,0.0,0 STARLINK-3175,1 51140U 22005AN  23075.46845773 -.00006123  00000-0 -36705-3 0  9999,2 51140  53.2140 148.8241 0001180 111.8727 248.2390 15.08826903 64306,6917.92,95.438,540.602,538.969,0.0
51140.0,STARLINK-3175,PAYLOAD,2023-03-17 04:43:51,15.08809614,0.0001242,53.2142,145.5555,95.9764,264.137,0.00038873,5.899e-05,0.0,0 STARLINK-3175,1 51140U 22005AN  23076.19711890  .00005899  00000-0  38873-3 0  9997,2 51140  53.2142 145.5555 0001242  95.9764 264.1370 15.08809614 65522,6917.973,95.439,540.697,538.979,0.0
51140.0,STARLINK-3175,PAYLOAD,2023-03-17 11:05:23,15.08813854,9.71e-05,53.2139,144.3649,91.1528,268.9576,-8.0994e-05,-1.576e-05,0.0,0 STARLINK-3175,1 51140U 22005AN  23076.46208192 -.00001576  00000-0 -80994-4 0  9995,2 51140  53.2139 144.3649 0000971  91.1528 268.9576 15.08813854 64455,6917.96,95.439,540.497,539.154,0.0
51140.0,STARLINK-3175,PAYLOAD,2023-03-18 04:34:38,15.08837858,7.56e-05,53.2144,141.092,89.9552,270.1526,0.00067786,0.00010516,0.0,0 STARLINK-3175,1 51140U 22005AN  23077.19072456  .00010516  00000-0  67786-3 0  9993,2 51140  53.2144 141.0920 0000756  89.9552 270.1526 15.08837858 65675,6917.887,95.438,540.275,539.229,0.0
51140.0,STARLINK-3175,PAYLOAD,2023-03-18 10:56:10,15.08860291,7.48e-05,53.2143,139.9037,79.4264,280.6813,0.0010658,0.00016724,0.0,0 STARLINK-3175,1 51140U 22005AN  23077.45567881  .00016724  00000-0  10658-2 0  9995,2 51140  53.2143 139.9037 0000748  79.4264 280.6813 15.08860291 65711,6917.818,95.436,540.201,539.166,0.0
51140.0,STARLINK-3175,PAYLOAD,2023-03-18 20:28:28,15.08875793,6.99e-05,53.2144,138.119,72.2226,287.8842,0.00090568,0.00014169,0.0,0 STARLINK-3175,1 51140U 22005AN  23077.85310992  .00014169  00000-0  90568-3 0  9998,2 51140  53.2144 138.1190 0000699  72.2226 287.8842 15.08875793 64664,6917.771,95.435,540.12,539.152,0.0
51140.0,STARLINK-3175,PAYLOAD,2023-03-19 04:25:24,15.08866647,0.0002352,53.2164,136.6332,102.1378,257.9877,0.00021277,3.102e-05,0.0,0 STARLINK-3175,1 51140U 22005AN  23078.18431024  .00003102  00000-0  21277-3 0  9991,2 51140  53.2164 136.6332 0002352 102.1378 257.9877 15.08866647 65829,6917.799,95.436,541.291,538.037,0.0
51140.0,STARLINK-3175,PAYLOAD,2023-03-19 10:46:56,15.08861852,0.0001179,53.2155,135.4448,92.127,267.9857,0.00019118,2.758e-05,0.0,0 STARLINK-3175,1 51140U 22005AN  23078.44926751  .00002758  00000-0  19118-3 0  9993,2 51140  53.2155 135.4448 0001179  92.1270 267.9857 15.08861852 64752,6917.814,95.436,540.494,538.863,0.0
51140.0,STARLINK-3175,PAYLOAD,2023-03-19 20:19:14,15.08869958,0.0001237,53.2158,133.6609,92.0611,268.0522,0.00048416,7.432e-05,0.0,0 STARLINK-3175,1 51140U 22005AN  23078.84670078  .00007432  00000-0  48416-3 0  9992,2 51140  53.2158 133.6609 0001237  92.0611 268.0522 15.08869958 64810,6917.789,95.436,540.51,538.798,0.0
51140.0,STARLINK-3175,PAYLOAD,2023-03-20 04:16:11,15.08841953,0.0001165,53.2144,132.1729,86.7221,273.3905,0.00021109,3.073e-05,0.0,0 STARLINK-3175,1 51140U 22005AN  23079.17791035  .00003073  00000-0  21109-3 0  9993,2 51140  53.2144 132.1729 0001165  86.7221 273.3905 15.08841953 65976,6917.874,95.437,540.545,538.933,0.0
51140.0,STARLINK-3175,PAYLOAD,2023-03-20 10:37:43,15.08847021,0.0001112,53.2147,130.9831,86.6951,273.4169,-6.3441e-05,-1.298e-05,0.0,0 STARLINK-3175,1 51140U 22005AN  23079.44286879 -.00001298  00000-0 -63441-4 0  9993,2 51140  53.2147 130.9831 0001112  86.6951 273.4169 15.08847021 64907,6917.859,95.437,540.493,538.955,0.0
51140.0,STARLINK-3175,PAYLOAD,2023-03-21 07:17:45,15.08837478,0.0001391,53.2155,127.1182,109.935,250.1792,3.0226e-05,1.93e-06,0.0,0 STARLINK-3175,1 51140U 22005AN  23080.30399359  .00000193  00000-0  30226-4 0  9994,2 51140  53.2155 127.1182 0001391 109.9350 250.1792 15.08837478 66141,6917.888,95.438,540.715,538.791,0.0
51140.0,STARLINK-3175,PAYLOAD,2023-03-21 10:28:31,15.08842109,0.000133,53.2158,126.5236,106.2268,253.8871,7.3748e-05,8.86e-06,0.0,0 STARLINK-3175,1 51140U 22005AN  23080.43647224  .00000886  00000-0  73748-4 0  9990,2 51140  53.2158 126.5236 0001330 106.2268 253.8871 15.08842109 65052,6917.874,95.437,540.659,538.819,0.0
51140.0,STARLINK-3175,PAYLOAD,2023-03-21 20:00:49,15.08844901,0.0001336,53.2145,124.7378,93.492,266.6225,7.0005e-05,8.27e-06,0.0,0 STARLINK-3175,1 51140U 22005AN  23080.83391071  .00000827  00000-0  70005-4 0  9998,2 51140  53.2145 124.7378 0001336  93.4920 266.6225 15.08844901 65117,6917.865,95.437,540.655,538.806,0.0
51140.0,STARLINK-3175,PAYLOAD,2023-03-22 10:19:18,15.08835517,0.0001526,53.2154,122.0622,98.9211,261.1954,8.2889e-05,1.031e-05,0.0,0 STARLINK-3175,1 51140U 22005AN  23081.43007894  .00001031  00000-0  82889-4 0  9993,2 51140  53.2154 122.0622 0001526  98.9211 261.1954 15.08835517 66319,6917.894,95.438,540.815,538.703,0.0
51140.0,STARLINK-3175,PAYLOAD,2023-03-23 08:34:42,15.08840327,0.0001504,53.2153,117.8993,94.362,265.7544,0.00024735,3.651e-05,0.0,0 STARLINK-3175,1 51140U 22005AN  23082.35743838  .00003651  00000-0  24735-3 0  9995,2 51140  53.2153 117.8993 0001504  94.3620 265.7544 15.08840327 65343,6917.879,95.438,540.785,538.704,0.0
51140.0,STARLINK-3175,PAYLOAD,2023-03-23 19:42:24,15.08840354,0.0001493,53.2149,115.8169,95.2499,264.8663,0.0003427,5.17e-05,0.0,0 STARLINK-3175,1 51140U 22005AN  23082.82111901  .00005170  00000-0  34270-3 0  9990,2 51140  53.2149 115.8169 0001493  95.2499 264.8663 15.08840354 66525,6917.879,95.438,540.777,538.711,0.0
51140.0,STARLINK-3175,PAYLOAD,2023-03-24 06:50:05,15.08859905,0.0001288,53.2151,113.7365,88.9379,271.176,0.00062572,9.69e-05,0.0,0 STARLINK-3175,1 51140U 22005AN  23083.28479053  .00009690  00000-0  62572-3 0  9993,2 51140  53.2151 113.7365 0001288  88.9379 271.1760 15.08859905 66599,6917.82,95.436,540.576,538.794,0.0
51140.0,STARLINK-3175,PAYLOAD,2023-03-24 11:36:14,15.08870458,0.0001397,53.214,112.84,109.7224,250.3919,0.00057944,8.953e-05,0.0,0 STARLINK-3175,1 51140U 22005AN  23083.48350094  .00008953  00000-0  57944-3 0  9996,2 51140  53.2140 112.8400 0001397 109.7224 250.3919 15.08870458 66624,6917.787,95.436,540.619,538.686,0.0
51140.0,STARLINK-3175,PAYLOAD,2023-03-25 01:54:43,15.08835369,0.0001694,53.2143,110.1664,94.1735,265.9451,-0.00011897,-2.181e-05,0.0,0 STARLINK-3175,1 51140U 22005AN  23084.07967520 -.00002181  00000-0 -11897-3 0  9996,2 51140  53.2143 110.1664 0001694  94.1735 265.9451 15.08835369 66719,6917.895,95.438,540.931,538.588,0.0
51140.0,STARLINK-3175,PAYLOAD,2023-03-25 08:16:17,15.08829685,0.0001282,53.2152,108.9777,77.2932,282.8203,-0.00011876,-2.177e-05,0.0,0 STARLINK-3175,1 51140U 22005AN  23084.34464157 -.00002177  00000-0 -11876-3 0  9996,2 51140  53.2152 108.9777 0001282  77.2932 282.8203 15.08829685 66754,6917.912,95.438,540.664,538.89,0.0
